start=new Date('2022-06-25T00:00:00.000Z').valueOf();
sats=[{"ECCENTRICITY":"0.00018090","MEAN_MOTION":"15.06401377","OBJECT_TYPE":"PAYLOAD","OBJECT_NAME":"STARLINK-1724","DECAY_DATE":null,"EPHEMERIS_TYPE":"0","SITE":"AFETR","LAUNCH_DATE":"2020-09-03","TIME_SYSTEM":"UTC","MEAN_MOTION_DOT":"0.00000514","INCLINATION":"53.0551","REV_AT_EPOCH":"10086","TLE_LINE1":"1 46375U 20062BC  22175.72259926  .00000514  00000-0  53415-4 0  9996","MEAN_ELEMENT_THEORY":"SGP4","PERIOD":"95.592","RA_OF_ASC_NODE":"289.8028","ARG_OF_PERICENTER":"63.4077","PERIAPSIS":"545.957","FILE":"3501798","RCS_SIZE":"LARGE","EPOCH":"2022-06-24T17:20:32.576064","CENTER_NAME":"EARTH","REF_FRAME":"TEME","TLE_LINE2":"2 46375  53.0551 289.8028 0001809  63.4077 296.7097 15.06401377100867","SEMIMAJOR_AXIS":"6925.344","MEAN_MOTION_DDOT":"0.0000000000000","GP_ID":"206785609","CLASSIFICATION_TYPE":"U","COUNTRY_CODE":"US","APOAPSIS":"548.462","OBJECT_ID":"2020-062BC","BSTAR":"0.00005341500000","ELEMENT_SET_NO":"999","MEAN_ANOMALY":"296.7097","NORAD_CAT_ID":"46375"},{"PERIAPSIS":"546.232","ARG_OF_PERICENTER":"82.3374","FILE":"3501798","RCS_SIZE":"LARGE","EPOCH":"2022-06-24T19:17:19.346496","LAUNCH_DATE":"2020-09-03","TIME_SYSTEM":"UTC","MEAN_MOTION_DOT":"0.00000358","REV_AT_EPOCH":"10087","INCLINATION":"53.0554","PERIOD":"95.592","RA_OF_ASC_NODE":"289.4585","MEAN_ELEMENT_THEORY":"SGP4","TLE_LINE1":"1 46376U 20062BD  22175.80369614  .00000358  00000-0  42964-4 0  9995","OBJECT_NAME":"STARLINK-1742","EPHEMERIS_TYPE":"0","DECAY_DATE":null,"SITE":"AFETR","ECCENTRICITY":"0.00014380","MEAN_MOTION":"15.06395379","OBJECT_TYPE":"PAYLOAD","MEAN_ANOMALY":"277.7778","NORAD_CAT_ID":"46376","CLASSIFICATION_TYPE":"U","APOAPSIS":"548.224","COUNTRY_CODE":"US","BSTAR":"0.00004296400000","ELEMENT_SET_NO":"999","OBJECT_ID":"2020-062BD","REF_FRAME":"TEME","SEMIMAJOR_AXIS":"6925.363","TLE_LINE2":"2 46376  53.0554 289.4585 0001438  82.3374 277.7778 15.06395379100873","GP_ID":"206785860","MEAN_MOTION_DDOT":"0.0000000000000","CENTER_NAME":"EARTH"},{"FILE":"3501798","PERIAPSIS":"546.374","ARG_OF_PERICENTER":"59.8170","EPOCH":"2022-06-24T16:53:20.621760","RCS_SIZE":"LARGE","MEAN_MOTION_DOT":"0.00001316","LAUNCH_DATE":"2020-09-03","TIME_SYSTEM":"UTC","RA_OF_ASC_NODE":"314.9089","PERIOD":"95.592","MEAN_ELEMENT_THEORY":"SGP4","TLE_LINE1":"1 46380U 20062BH  22175.70371090  .00001316  00000-0  10723-3 0  9992","REV_AT_EPOCH":"10051","INCLINATION":"53.0578","EPHEMERIS_TYPE":"0","DECAY_DATE":null,"OBJECT_NAME":"STARLINK-1758","SITE":"AFETR","MEAN_MOTION":"15.06394814","ECCENTRICITY":"0.00012350","OBJECT_TYPE":"PAYLOAD","MEAN_ANOMALY":"300.2941","NORAD_CAT_ID":"46380","CLASSIFICATION_TYPE":"U","ELEMENT_SET_NO":"999","BSTAR":"0.00010723000000","OBJECT_ID":"2020-062BH","APOAPSIS":"548.085","COUNTRY_CODE":"US","REF_FRAME":"TEME","GP_ID":"206784608","MEAN_MOTION_DDOT":"0.0000000000000","SEMIMAJOR_AXIS":"6925.364","TLE_LINE2":"2 46380  53.0578 314.9089 0001235  59.8170 300.2941 15.06394814100513","CENTER_NAME":"EARTH"},{"SITE":"AFETR","OBJECT_NAME":"STARLINK-1769","EPHEMERIS_TYPE":"0","DECAY_DATE":null,"OBJECT_TYPE":"PAYLOAD","ECCENTRICITY":"0.00014650","MEAN_MOTION":"15.06395256","RCS_SIZE":"LARGE","EPOCH":"2022-06-24T14:51:56.007072","PERIAPSIS":"546.214","ARG_OF_PERICENTER":"59.0056","FILE":"3501798","REV_AT_EPOCH":"10085","INCLINATION":"53.0550","PERIOD":"95.592","RA_OF_ASC_NODE":"290.2909","MEAN_ELEMENT_THEORY":"SGP4","TLE_LINE1":"1 46382U 20062BK  22175.61939823  .00000359  00000-0  42989-4 0  9994","LAUNCH_DATE":"2020-09-03","TIME_SYSTEM":"UTC","MEAN_MOTION_DOT":"0.00000359","SEMIMAJOR_AXIS":"6925.363","TLE_LINE2":"2 46382  53.0550 290.2909 0001465  59.0056 301.1077 15.06395256100850","GP_ID":"206784858","MEAN_MOTION_DDOT":"0.0000000000000","REF_FRAME":"TEME","CENTER_NAME":"EARTH","NORAD_CAT_ID":"46382","MEAN_ANOMALY":"301.1077","APOAPSIS":"548.243","COUNTRY_CODE":"US","BSTAR":"0.00004298900000","ELEMENT_SET_NO":"999","OBJECT_ID":"2020-062BK","CLASSIFICATION_TYPE":"U"},{"INCLINATION":"53.0565","REV_AT_EPOCH":"10024","TLE_LINE1":"1 46383U 20062BL  22175.80507520  .00000128  00000-0  27480-4 0  9994","PERIOD":"95.592","MEAN_ELEMENT_THEORY":"SGP4","RA_OF_ASC_NODE":"334.4542","TIME_SYSTEM":"UTC","LAUNCH_DATE":"2020-09-03","MEAN_MOTION_DOT":"0.00000128","RCS_SIZE":"LARGE","EPOCH":"2022-06-24T19:19:18.497280","ARG_OF_PERICENTER":"56.2134","PERIAPSIS":"546.100","FILE":"3501798","OBJECT_TYPE":"PAYLOAD","ECCENTRICITY":"0.00016170","MEAN_MOTION":"15.06398038","SITE":"AFETR","OBJECT_NAME":"STARLINK-1770","DECAY_DATE":null,"EPHEMERIS_TYPE":"0","COUNTRY_CODE":"US","APOAPSIS":"548.339","OBJECT_ID":"2020-062BL","ELEMENT_SET_NO":"999","BSTAR":"0.00002748000000","CLASSIFICATION_TYPE":"U","NORAD_CAT_ID":"46383","MEAN_ANOMALY":"303.9009","CENTER_NAME":"EARTH","TLE_LINE2":"2 46383  53.0565 334.4542 0001617  56.2134 303.9009 15.06398038100245","SEMIMAJOR_AXIS":"6925.355","MEAN_MOTION_DDOT":"0.0000000000000","GP_ID":"206786110","REF_FRAME":"TEME"},{"TLE_LINE2":"2 46384  53.0547 334.7374 0001549  85.3501 274.7665 15.06389278100235","SEMIMAJOR_AXIS":"6925.381","MEAN_MOTION_DDOT":"0.0000000000000","GP_ID":"206786361","REF_FRAME":"TEME","CENTER_NAME":"EARTH","NORAD_CAT_ID":"46384","MEAN_ANOMALY":"274.7665","COUNTRY_CODE":"US","APOAPSIS":"548.319","OBJECT_ID":"2020-062BM","BSTAR":"-0.00001083900000","ELEMENT_SET_NO":"999","CLASSIFICATION_TYPE":"U","SITE":"AFETR","OBJECT_NAME":"STARLINK-1771","DECAY_DATE":null,"EPHEMERIS_TYPE":"0","OBJECT_TYPE":"PAYLOAD","ECCENTRICITY":"0.00015490","MEAN_MOTION":"15.06389278","RCS_SIZE":"LARGE","EPOCH":"2022-06-24T17:49:05.375712","ARG_OF_PERICENTER":"85.3501","PERIAPSIS":"546.174","FILE":"3501798","INCLINATION":"53.0547","REV_AT_EPOCH":"10023","TLE_LINE1":"1 46384U 20062BM  22175.74242333 -.00000443  00000-0 -10839-4 0  9998","RA_OF_ASC_NODE":"334.7374","PERIOD":"95.593","MEAN_ELEMENT_THEORY":"SGP4","LAUNCH_DATE":"2020-09-03","TIME_SYSTEM":"UTC","MEAN_MOTION_DOT":"-0.00000443"},{"CENTER_NAME":"EARTH","REF_FRAME":"TEME","SEMIMAJOR_AXIS":"6925.357","TLE_LINE2":"2 46532  53.0542 135.3164 0001356  64.4249 295.6880 15.06397112 95410","GP_ID":"206784622","MEAN_MOTION_DDOT":"0.0000000000000","CLASSIFICATION_TYPE":"U","APOAPSIS":"548.161","COUNTRY_CODE":"US","BSTAR":"-0.00005813200000","ELEMENT_SET_NO":"999","OBJECT_ID":"2020-070A","MEAN_ANOMALY":"295.6880","NORAD_CAT_ID":"46532","ECCENTRICITY":"0.00013560","MEAN_MOTION":"15.06397112","OBJECT_TYPE":"PAYLOAD","OBJECT_NAME":"STARLINK-1644","EPHEMERIS_TYPE":"0","DECAY_DATE":null,"SITE":"AFETR","TIME_SYSTEM":"UTC","LAUNCH_DATE":"2020-10-06","MEAN_MOTION_DOT":"-0.00001147","REV_AT_EPOCH":"9541","INCLINATION":"53.0542","RA_OF_ASC_NODE":"135.3164","PERIOD":"95.592","MEAN_ELEMENT_THEORY":"SGP4","TLE_LINE1":"1 46532U 20070A   22175.60972273 -.00001147  00000-0 -58132-4 0  9990","PERIAPSIS":"546.283","ARG_OF_PERICENTER":"64.4249","FILE":"3501798","RCS_SIZE":"LARGE","EPOCH":"2022-06-24T14:38:00.043872"},{"NORAD_CAT_ID":"46533","MEAN_ANOMALY":"302.3643","OBJECT_ID":"2020-070B","BSTAR":"0.00004136500000","ELEMENT_SET_NO":"999","COUNTRY_CODE":"US","APOAPSIS":"548.552","CLASSIFICATION_TYPE":"U","MEAN_MOTION_DDOT":"0.0000000000000","GP_ID":"206784872","TLE_LINE2":"2 46533  53.0545 135.2579 0001942  57.7534 302.3643 15.06402232 95419","SEMIMAJOR_AXIS":"6925.342","REF_FRAME":"TEME","CENTER_NAME":"EARTH","EPOCH":"2022-06-24T14:53:55.137984","RCS_SIZE":"LARGE","FILE":"3501798","ARG_OF_PERICENTER":"57.7534","PERIAPSIS":"545.862","TLE_LINE1":"1 46533U 20070B   22175.62077706  .00000335  00000-0  41365-4 0  9996","PERIOD":"95.592","MEAN_ELEMENT_THEORY":"SGP4","RA_OF_ASC_NODE":"135.2579","INCLINATION":"53.0545","REV_AT_EPOCH":"9541","MEAN_MOTION_DOT":"0.00000335","TIME_SYSTEM":"UTC","LAUNCH_DATE":"2020-10-06","SITE":"AFETR","DECAY_DATE":null,"EPHEMERIS_TYPE":"0","OBJECT_NAME":"STARLINK-1648","OBJECT_TYPE":"PAYLOAD","MEAN_MOTION":"15.06402232","ECCENTRICITY":"0.00019420"},{"OBJECT_TYPE":"PAYLOAD","MEAN_MOTION":"15.06393868","ECCENTRICITY":"0.00020750","SITE":"AFETR","EPHEMERIS_TYPE":"0","DECAY_DATE":null,"OBJECT_NAME":"STARLINK-1659","RA_OF_ASC_NODE":"135.3592","PERIOD":"95.593","MEAN_ELEMENT_THEORY":"SGP4","TLE_LINE1":"1 46534U 20070C   22175.60235028  .00001111  00000-0  93482-4 0  9998","REV_AT_EPOCH":"9541","INCLINATION":"53.0546","MEAN_MOTION_DOT":"0.00001111","LAUNCH_DATE":"2020-10-06","TIME_SYSTEM":"UTC","EPOCH":"2022-06-24T14:27:23.064192","RCS_SIZE":"LARGE","FILE":"3501798","PERIAPSIS":"545.795","ARG_OF_PERICENTER":"57.7804","CENTER_NAME":"EARTH","GP_ID":"206786124","MEAN_MOTION_DDOT":"0.0000000000000","SEMIMAJOR_AXIS":"6925.367","TLE_LINE2":"2 46534  53.0546 135.3592 0002075  57.7804 302.3386 15.06393868 95413","REF_FRAME":"TEME","ELEMENT_SET_NO":"999","BSTAR":"0.00009348200000","OBJECT_ID":"2020-070C","APOAPSIS":"548.669","COUNTRY_CODE":"US","CLASSIFICATION_TYPE":"U","NORAD_CAT_ID":"46534","MEAN_ANOMALY":"302.3386"},{"CENTER_NAME":"EARTH","REF_FRAME":"TEME","GP_ID":"206786375","MEAN_MOTION_DDOT":"0.0000000000000","SEMIMAJOR_AXIS":"6925.332","TLE_LINE2":"2 46535  53.0548 135.4083 0001942  60.8970 299.2214 15.06405251 95406","CLASSIFICATION_TYPE":"U","BSTAR":"-0.00023828000000","ELEMENT_SET_NO":"999","OBJECT_ID":"2020-070D","APOAPSIS":"548.542","COUNTRY_CODE":"US","MEAN_ANOMALY":"299.2214","NORAD_CAT_ID":"46535","MEAN_MOTION":"15.06405251","ECCENTRICITY":"0.00019420","OBJECT_TYPE":"PAYLOAD","EPHEMERIS_TYPE":"0","DECAY_DATE":null,"OBJECT_NAME":"STARLINK-1663","SITE":"AFETR","MEAN_MOTION_DOT":"-0.00003830","TIME_SYSTEM":"UTC","LAUNCH_DATE":"2020-10-06","PERIOD":"95.592","MEAN_ELEMENT_THEORY":"SGP4","RA_OF_ASC_NODE":"135.4083","TLE_LINE1":"1 46535U 20070D   22175.59129275 -.00003830  00000-0 -23828-3 0  9991","REV_AT_EPOCH":"9540","INCLINATION":"53.0548","FILE":"3501798","PERIAPSIS":"545.853","ARG_OF_PERICENTER":"60.8970","EPOCH":"2022-06-24T14:11:27.693600","RCS_SIZE":"LARGE"}];
